CCSDS_OMM_VERS = 2.0
CREATION_DATE  = 
ORIGINATOR     = 

OBJECT_NAME    = RSP-03
OBJECT_ID      = 1998-067XL
CENTER_NAME    = EARTH
REF_FRAME      = TEME
TIME_SYSTEM    = UTC
MEAN_ELEMENT_THEORY = SGP/SGP4

EPOCH          = 2026-02-05T17:27:13.499712
MEAN_MOTION    = 15.98005384
ECCENTRICITY   = .0006247
INCLINATION    = 51.6175
RA_OF_ASC_NODE = 211.8577
ARG_OF_PERICENTER = 274.4192
MEAN_ANOMALY   = 85.6103

EPHEMERIS_TYPE = 0
CLASSIFICATION_TYPE = U
NORAD_CAT_ID   = 65732
ELEMENT_SET_NO = 999
REV_AT_EPOCH   = 2185
BSTAR          = .16707E-2
MEAN_MOTION_DOT = .782112E-2
MEAN_MOTION_DDOT = .28519E-3

CCSDS_OMM_VERS = 2.0
CREATION_DATE  = 
ORIGINATOR     = 

OBJECT_NAME    = YOTSUBA-KULOVER
OBJECT_ID      = 1998-067XN
CENTER_NAME    = EARTH
REF_FRAME      = TEME
TIME_SYSTEM    = UTC
MEAN_ELEMENT_THEORY = SGP/SGP4

EPOCH          = 2026-02-05T17:20:06.198144
MEAN_MOTION    = 15.70112599
ECCENTRICITY   = .00041195
INCLINATION    = 51.6244
RA_OF_ASC_NODE = 221.6848
ARG_OF_PERICENTER = 232.1439
MEAN_ANOMALY   = 127.9186

EPHEMERIS_TYPE = 0
CLASSIFICATION_TYPE = U
NORAD_CAT_ID   = 65941
ELEMENT_SET_NO = 999
REV_AT_EPOCH   = 1846
BSTAR          = .12468237E-2
MEAN_MOTION_DOT = .156224E-2
MEAN_MOTION_DDOT = 0

CCSDS_OMM_VERS = 2.0
CREATION_DATE  = 
ORIGINATOR     = 

OBJECT_NAME    = BOTAN
OBJECT_ID      = 1998-067XP
CENTER_NAME    = EARTH
REF_FRAME      = TEME
TIME_SYSTEM    = UTC
MEAN_ELEMENT_THEORY = SGP/SGP4

EPOCH          = 2026-02-05T16:26:13.322688
MEAN_MOTION    = 15.82518268
ECCENTRICITY   = .00056548
INCLINATION    = 51.6194
RA_OF_ASC_NODE = 218.3956
ARG_OF_PERICENTER = 257.2305
MEAN_ANOMALY   = 102.8066

EPHEMERIS_TYPE = 0
CLASSIFICATION_TYPE = U
NORAD_CAT_ID   = 65942
ELEMENT_SET_NO = 999
REV_AT_EPOCH   = 1850
BSTAR          = .17752203E-2
MEAN_MOTION_DOT = .396212E-2
MEAN_MOTION_DDOT = 0

CCSDS_OMM_VERS = 2.0
CREATION_DATE  = 
ORIGINATOR     = 

OBJECT_NAME    = E-KAGAKU-1
OBJECT_ID      = 1998-067XQ
CENTER_NAME    = EARTH
REF_FRAME      = TEME
TIME_SYSTEM    = UTC
MEAN_ELEMENT_THEORY = SGP/SGP4

EPOCH          = 2026-02-05T17:20:59.048160
MEAN_MOTION    = 15.70022398
ECCENTRICITY   = .00033466
INCLINATION    = 51.6264
RA_OF_ASC_NODE = 221.6998
ARG_OF_PERICENTER = 248.6599
MEAN_ANOMALY   = 111.4041

EPHEMERIS_TYPE = 0
CLASSIFICATION_TYPE = U
NORAD_CAT_ID   = 65943
ELEMENT_SET_NO = 999
REV_AT_EPOCH   = 1846
BSTAR          = .12358991E-2
MEAN_MOTION_DOT = .154212E-2
MEAN_MOTION_DDOT = 0

CCSDS_OMM_VERS = 2.0
CREATION_DATE  = 
ORIGINATOR     = 

OBJECT_NAME    = HRC MONOBLOCK CAMERA
OBJECT_ID      = 1998-067XR
CENTER_NAME    = EARTH
REF_FRAME      = TEME
TIME_SYSTEM    = UTC
MEAN_ELEMENT_THEORY = SGP/SGP4

EPOCH          = 2026-02-05T17:51:50.046336
MEAN_MOTION    = 15.58916515
ECCENTRICITY   = .000063
INCLINATION    = 51.6280
RA_OF_ASC_NODE = 226.3440
ARG_OF_PERICENTER = 351.3763
MEAN_ANOMALY   = 8.7218

EPHEMERIS_TYPE = 0
CLASSIFICATION_TYPE = U
NORAD_CAT_ID   = 66052
ELEMENT_SET_NO = 999
REV_AT_EPOCH   = 1740
BSTAR          = .75893E-3
MEAN_MOTION_DOT = .5997E-3
MEAN_MOTION_DDOT = 0

CCSDS_OMM_VERS = 2.0
CREATION_DATE  = 
ORIGINATOR     = 

OBJECT_NAME    = HTV-X1
OBJECT_ID      = 2025-241A
CENTER_NAME    = EARTH
REF_FRAME      = TEME
TIME_SYSTEM    = UTC
MEAN_ELEMENT_THEORY = SGP/SGP4

EPOCH          = 2026-02-05T12:03:05.122368
MEAN_MOTION    = 15.48414003
ECCENTRICITY   = .00111547
INCLINATION    = 51.6316
RA_OF_ASC_NODE = 231.4727
ARG_OF_PERICENTER = 67.3664
MEAN_ANOMALY   = 292.8503

EPHEMERIS_TYPE = 0
CLASSIFICATION_TYPE = U
NORAD_CAT_ID   = 66174
ELEMENT_SET_NO = 999
REV_AT_EPOCH   = 51
BSTAR          = .24571181E-3
MEAN_MOTION_DOT = .1286E-3
MEAN_MOTION_DDOT = 0

CCSDS_OMM_VERS = 2.0
CREATION_DATE  = 
ORIGINATOR     = 

OBJECT_NAME    = SZ-21 MODULE
OBJECT_ID      = 2025-246C
CENTER_NAME    = EARTH
REF_FRAME      = TEME
TIME_SYSTEM    = UTC
MEAN_ELEMENT_THEORY = SGP/SGP4

EPOCH          = 2026-02-05T09:13:51.577536
MEAN_MOTION    = 15.66107693
ECCENTRICITY   = .00030808
INCLINATION    = 41.4761
RA_OF_ASC_NODE = 41.8476
ARG_OF_PERICENTER = 276.8900
MEAN_ANOMALY   = 83.1590

EPHEMERIS_TYPE = 0
CLASSIFICATION_TYPE = U
NORAD_CAT_ID   = 66515
ELEMENT_SET_NO = 999
REV_AT_EPOCH   = 1300
BSTAR          = .42094529E-3
MEAN_MOTION_DOT = .44396E-3
MEAN_MOTION_DDOT = 0

CCSDS_OMM_VERS = 2.0
CREATION_DATE  = 
ORIGINATOR     = 

OBJECT_NAME    = SHENZHOU-22
OBJECT_ID      = 2025-272A
CENTER_NAME    = EARTH
REF_FRAME      = TEME
TIME_SYSTEM    = UTC
MEAN_ELEMENT_THEORY = SGP/SGP4

EPOCH          = 2026-02-05T16:54:58.970880
MEAN_MOTION    = 15.59253081
ECCENTRICITY   = .00055086
INCLINATION    = 41.4677
RA_OF_ASC_NODE = 42.5669
ARG_OF_PERICENTER = 7.6510
MEAN_ANOMALY   = 352.4412

EPHEMERIS_TYPE = 0
CLASSIFICATION_TYPE = U
NORAD_CAT_ID   = 66645
ELEMENT_SET_NO = 999
REV_AT_EPOCH   = 26764
BSTAR          = .41781313E-3
MEAN_MOTION_DOT = .33602E-3
MEAN_MOTION_DDOT = 0

CCSDS_OMM_VERS = 2.0
CREATION_DATE  = 
ORIGINATOR     = 

OBJECT_NAME    = SOYUZ-MS 28
OBJECT_ID      = 2025-275A
CENTER_NAME    = EARTH
REF_FRAME      = TEME
TIME_SYSTEM    = UTC
MEAN_ELEMENT_THEORY = SGP/SGP4

EPOCH          = 2026-02-05T12:03:05.122368
MEAN_MOTION    = 15.48414003
ECCENTRICITY   = .0011155
INCLINATION    = 51.6316
RA_OF_ASC_NODE = 231.4727
ARG_OF_PERICENTER = 67.3664
MEAN_ANOMALY   = 292.8503

EPHEMERIS_TYPE = 0
CLASSIFICATION_TYPE = U
NORAD_CAT_ID   = 66664
ELEMENT_SET_NO = 999
REV_AT_EPOCH   = 55134
BSTAR          = .24571E-3
MEAN_MOTION_DOT = .1286E-3
MEAN_MOTION_DDOT = 0

CCSDS_OMM_VERS = 2.0
CREATION_DATE  = 
ORIGINATOR     = 

OBJECT_NAME    = DUPLEX
OBJECT_ID      = 1998-067XS
CENTER_NAME    = EARTH
REF_FRAME      = TEME
TIME_SYSTEM    = UTC
MEAN_ELEMENT_THEORY = SGP/SGP4

EPOCH          = 2026-02-05T18:37:45.566112
MEAN_MOTION    = 15.53973578
ECCENTRICITY   = .0001412
INCLINATION    = 51.6288
RA_OF_ASC_NODE = 228.8053
ARG_OF_PERICENTER = 81.2832
MEAN_ANOMALY   = 278.8319

EPHEMERIS_TYPE = 0
CLASSIFICATION_TYPE = U
NORAD_CAT_ID   = 66906
ELEMENT_SET_NO = 999
REV_AT_EPOCH   = 1016
BSTAR          = .70289E-3
MEAN_MOTION_DOT = .46057E-3
MEAN_MOTION_DDOT = 0

CCSDS_OMM_VERS = 2.0
CREATION_DATE  = 
ORIGINATOR     = 

OBJECT_NAME    = 1998-067XT
OBJECT_ID      = 1998-067XT
CENTER_NAME    = EARTH
REF_FRAME      = TEME
TIME_SYSTEM    = UTC
MEAN_ELEMENT_THEORY = SGP/SGP4

EPOCH          = 2026-02-05T18:39:57.909312
MEAN_MOTION    = 15.60974670
ECCENTRICITY   = .0002212
INCLINATION    = 51.6265
RA_OF_ASC_NODE = 227.3140
ARG_OF_PERICENTER = 199.3308
MEAN_ANOMALY   = 160.7602

EPHEMERIS_TYPE = 0
CLASSIFICATION_TYPE = U
NORAD_CAT_ID   = 66907
ELEMENT_SET_NO = 999
REV_AT_EPOCH   = 1018
BSTAR          = .15034E-2
MEAN_MOTION_DOT = .130219E-2
MEAN_MOTION_DDOT = 0

CCSDS_OMM_VERS = 2.0
CREATION_DATE  = 
ORIGINATOR     = 

OBJECT_NAME    = 1998-067XU
OBJECT_ID      = 1998-067XU
CENTER_NAME    = EARTH
REF_FRAME      = TEME
TIME_SYSTEM    = UTC
MEAN_ELEMENT_THEORY = SGP/SGP4

EPOCH          = 2026-02-05T18:39:13.061664
MEAN_MOTION    = 15.61013242
ECCENTRICITY   = .0002035
INCLINATION    = 51.6270
RA_OF_ASC_NODE = 227.3086
ARG_OF_PERICENTER = 199.5208
MEAN_ANOMALY   = 160.5708

EPHEMERIS_TYPE = 0
CLASSIFICATION_TYPE = U
NORAD_CAT_ID   = 66908
ELEMENT_SET_NO = 999
REV_AT_EPOCH   = 1018
BSTAR          = .15278E-2
MEAN_MOTION_DOT = .13258E-2
MEAN_MOTION_DDOT = 0

